DRUMS                   
1 49401U 21102G   26068.66810207  .00006670  00000+0  31687-3 0  9992
2 49401  97.3433 108.4998 0014519 215.9930 144.0328 15.19452308238460
TRANSPORTER-15 OBJECT L 
1 66676U 25276L   26068.66353295  .00006545  00000+0  32542-3 0  9992
2 66676  97.4247 143.7845 0005875   7.6723 352.4600 15.17958705 15305
